[
  {"ChapterName": "Nobles Progressives", "ChapterLeaderName": "Lauren Peloquin", "City": "Wellesley", "State": "MA", "ZIP": "02481"},
  {"ChapterName": "High School Democrats of Philadelphia (HSDPHILA)", "ChapterLeaderName": "Andreo Bono", "City": "Philadelphia", "State": "PA", "ZIP": "19102"},
  {"ChapterName": "Pi Hi Democrats", "ChapterLeaderName": "Tova Weiss", "City": "Pittsburgh", "State": "PA", "ZIP": "15213"},
  {"ChapterName": "Helena High - DASH", "ChapterLeaderName": "Nora Dwyer", "City": "Helena", "State": "MT", "ZIP": "59601"},
  {"ChapterName": "Berkeley High School Chapter", "ChapterLeaderName": "Fiona Schwartz", "City": "Berkeley", "State": "CA", "ZIP": "94704"},
  {"ChapterName": "Bountiful HSDA", "ChapterLeaderName": "John Alley", "City": "Bountiful", "State": "UT", "ZIP": "84010"},
  {"ChapterName": "Creekside High School", "ChapterLeaderName": "Kendra Magloff", "City": "St. Johns", "State": "FL", "ZIP": "32259"},
  {"ChapterName": "Newton South High School Democrats", "ChapterLeaderName": "Boston Bulis", "City": "Newton", "State": "MA", "ZIP": "02459"},
  {"ChapterName": "Capital High School", "ChapterLeaderName": "Grey Simpson", "City": "Olympia", "State": "WA", "ZIP": "98501"},
  {"ChapterName": "South Brunswick High School", "ChapterLeaderName": "Kinnar Mehta & Hershal Mehta", "City": "Monmouth Junction", "State": "NJ", "ZIP": "08852"},
  {"ChapterName": "Low Country", "ChapterLeaderName": "Alyssia Gibson", "City": "Charleston", "State": "SC", "ZIP": "29401"},
  {"ChapterName": "Young Democrats", "ChapterLeaderName": "Asia Roper", "City": "Chicago", "State": "IL", "ZIP": "60602"},
  {"ChapterName": "Glacier High School Dems", "ChapterLeaderName": "Joshua Lee", "City": "Kalispell", "State": "MT", "ZIP": "59901"},
  {"ChapterName": "Young Democrats of Ladue", "ChapterLeaderName": "Henry Madden", "City": "St. Louis", "State": "MO", "ZIP": "63124"},
  {"ChapterName": "Metro-Richmond Area High School Democrats", "ChapterLeaderName": "Jack George", "City": "Richmond", "State": "VA", "ZIP": "23220"},
  {"ChapterName": "Eastside High School Democrats", "ChapterLeaderName": "Sarah Kumar & Max Kumar", "City": "Taylors", "State": "SC", "ZIP": "29687"},
  {"ChapterName": "Park Hill High School Young Democrats", "ChapterLeaderName": "Lauren Criswell & Ali Bray", "City": "Kansas City", "State": "MO", "ZIP": "64152"},
  {"ChapterName": "TC Roberson Dems Super Politics Best USA, Charles E Schumer Fan Club", "ChapterLeaderName": "Elizabeth Ford & Luke Groth", "City": "Asheville", "State": "NC", "ZIP": "28803"},
  {"ChapterName": "Franklin County High School Democrats", "ChapterLeaderName": "Harun Siddiqui", "City": "Franklin", "State": "TN", "ZIP": "37064"},
  {"ChapterName": "Roanoke City High School Democrats", "ChapterLeaderName": "Christopher Cook & Miriam Lee", "City": "Roanoke", "State": "VA", "ZIP": "24016"},
  {"ChapterName": "Mission Prep HSDA", "ChapterLeaderName": "Chase Martin", "City": "San Luis Obispo", "State": "CA", "ZIP": "93405"},
  {"ChapterName": "Knox County High School Democrats", "ChapterLeaderName": "Sophia Chen", "City": "Barbourville", "State": "KY", "ZIP": "40906"},
  {"ChapterName": "Signal Mountain High School Democrats", "ChapterLeaderName": "Taylor Bray", "City": "Signal Mountain", "State": "TN", "ZIP": "37377"},
  {"ChapterName": "Montgomery County High School Democrats", "ChapterLeaderName": "George Baldree", "City": "Mount Sterling", "State": "KY", "ZIP": "40353"},
  {"ChapterName": "High School Democrats of Timberline", "ChapterLeaderName": "Holden Gonzalez", "City": "Lacey", "State": "WA", "ZIP": "98503"},
  {"ChapterName": "Bellarmine College Preparatory High School Democrats of America", "ChapterLeaderName": "Imraan Mohammed", "City": "San Jose", "State": "CA", "ZIP": "95126"},
  {"ChapterName": "Rock County High School Democrats", "ChapterLeaderName": "Charles Haque", "City": "Janesville", "State": "WI", "ZIP": "53545"},
  {"ChapterName": "Hamilton County High School Democrats", "ChapterLeaderName": "Reed Hampton", "City": "Chattanooga", "State": "TN", "ZIP": "37421"},
  {"ChapterName": "The Ozaukee County High School Democrats", "ChapterLeaderName": "Connor Pronovost", "City": "Port Washington", "State": "WI", "ZIP": "53074"},
  {"ChapterName": "Florida Democrats", "ChapterLeaderName": "Sofiia Razubaeva", "City": "Tallahassee", "State": "FL", "ZIP": "32301"},
  {"ChapterName": "Don Tyson School of Innovation", "ChapterLeaderName": "Kinley Wallis", "City": "Springdale", "State": "AR", "ZIP": "72762"},
  {"ChapterName": "Green Level High School Democrats", "ChapterLeaderName": "Varnika Ravivarma", "City": "Cary", "State": "NC", "ZIP": "27519"},
  {"ChapterName": "Mill Creek High School Democrats", "ChapterLeaderName": "Aiden Yang", "City": "Hoschton", "State": "GA", "ZIP": "30548"},
  {"ChapterName": "Cuyahoga County HSDA", "ChapterLeaderName": "Diya Gupta", "City": "Cleveland", "State": "OH", "ZIP": "44114"},
  {"ChapterName": "Oak Park High School (Ca) High School Democrats of America (OPHSHSDA)", "ChapterLeaderName": "Eva Hand", "City": "Oak Park", "State": "CA", "ZIP": "91377"},
  {"ChapterName": "Loudoun County", "ChapterLeaderName": "Samarth Chenumolu", "City": "Leesburg", "State": "VA", "ZIP": "20175"},
  {"ChapterName": "Fairfield County High School Democrats", "ChapterLeaderName": "Allison Tran", "City": "Fairfield", "State": "CT", "ZIP": "06824"},
  {"ChapterName": "Young Progressives", "ChapterLeaderName": "Malek Kamal", "City": "San Diego", "State": "CA", "ZIP": "92103"},
  {"ChapterName": "Monmouth County Chapter", "ChapterLeaderName": "Sindhu Addepalli", "City": "Freehold", "State": "NJ", "ZIP": "07728"},
  {"ChapterName": "Palm Beach County High School Democrats", "ChapterLeaderName": "Michael Gomez", "City": "West Palm Beach", "State": "FL", "ZIP": "33401"},
  {"ChapterName": "New Mexico High School Democrats of America", "ChapterLeaderName": "Maryam El-Kady", "City": "Albuquerque", "State": "NM", "ZIP": "87102"},
  {"ChapterName": "Richmond Hill High School Democrats", "ChapterLeaderName": "Mia Popovich", "City": "Richmond Hill", "State": "GA", "ZIP": "31324"},
  {"ChapterName": "Middlesex County Chapter", "ChapterLeaderName": "Hartaj Singh", "City": "Edison", "State": "NJ", "ZIP": "08820"},
  {"ChapterName": "High School Democrats of America Collin County", "ChapterLeaderName": "Nitya Ajamapudi", "City": "Plano", "State": "TX", "ZIP": "75023"},
  {"ChapterName": "Denton County High School Democrats", "ChapterLeaderName": "Saisaharsh Reddy Devireddy", "City": "Denton", "State": "TX", "ZIP": "76201"},
  {"ChapterName": "Summit County High School Democrats", "ChapterLeaderName": "Josh Carter", "City": "Akron", "State": "OH", "ZIP": "44308"},
  {"ChapterName": "Hagerstown High School Democrats", "ChapterLeaderName": "Zoe Eden Burnett", "City": "Hagerstown", "State": "MD", "ZIP": "21740"},
  {"ChapterName": "Union County High School Democrats", "ChapterLeaderName": "Sohan Saggar & Sofia Gallo-Mora", "City": "Liberty", "State": "MO", "ZIP": "64068"},
  {"ChapterName": "High School Democrats of Adams County", "ChapterLeaderName": "Skylar King", "City": "Westminster", "State": "CO", "ZIP": "80030"},
  {"ChapterName": "Kanawha County HSDA", "ChapterLeaderName": "Jaden Lukowicz", "City": "Charleston", "State": "WV", "ZIP": "25301"},
  {"ChapterName": "Towson High School Democrats", "ChapterLeaderName": "Will Budlow", "City": "Towson", "State": "MD", "ZIP": "21204"},
  {"ChapterName": "Boone High School", "ChapterLeaderName": "Brady Graham", "City": "Boone",
::contentReference[oaicite:0]{index=0}
